IRIDIUM 159             
1 43578U 18061K   23250.05104746  .00000011  00000+0 -31060-5 0  9999
2 43578  86.3957 120.5876 0002112  89.1166 271.0272 14.34215043268029
IRIDIUM 180             
1 43922U 19002A   23249.98077551  .00000126  00000+0  37794-4 0  9996
2 43922  86.3936  57.4465 0001928  92.6919 267.4497 14.34218588243668
IRIDIUM 176             
1 43923U 19002B   23249.53705630  .00000468  00000+0  70314-4 0  9998
2 43923  86.6065  57.6672 0002278  89.4642 270.6836 14.72252621249963
IRIDIUM 168             
1 43924U 19002C   23249.90467002  .00000116  00000+0  34408-4 0  9992
2 43924  86.3942  57.5271 0001987  92.0530 268.0894 14.34216885243599
IRIDIUM 173             
1 43925U 19002D   23249.40361495  .00000110  00000+0  32180-4 0  9996
2 43925  86.3933  57.6671 0002089  93.0983 267.0452 14.34217522243512
IRIDIUM 169             
1 43926U 19002E   23249.85088593  .00000122  00000+0  33261-4 0  9995
2 43926  86.4171  89.1188 0005455  86.6198 273.5625 14.38618893244398
IRIDIUM 172             
1 43927U 19002F   23249.53677460  .00000105  00000+0  30586-4 0  9996
2 43927  86.3935  57.6162 0002008  92.6248 267.5178 14.34215133243539
IRIDIUM 175             
1 43928U 19002G   23249.73476205  .00000992  00000+0  15329-3 0  9994
2 43928  86.1502  46.8014 0002178  91.5339 268.6127 14.72252056249989
